NAVSTAR 74 (USA 262)    
1 40730U 15033A   15225.51571926 -.00000032  00000-0  00000+0 0  9992
2 40730  55.0147  67.0608 0015678 258.1522 101.7445  2.00577694   571
ATLAS 5 CENTAUR R/B     
1 40731U 15033B   15226.25158813 -.00000035  00000-0  00000+0 0  9994
2 40731  55.3557  66.0725 0232549 291.4867  66.1196  1.90867887   569
METEOSAT-11 (MSG-4)     
1 40732U 15034A   15225.91666667 -.00000055  00000-0  00000+0 0  9991
2 40732   3.1362 264.7968 0000490  21.6977   2.0927  1.00269428   338
STAR ONE C4             
1 40733U 15034B   15226.44320130 -.00000289  00000-0  00000+0 0  9992
2 40733   0.0630 269.2969 0000557 281.6371 221.2359  1.00270454   351
ARIANE 5 R/B            
1 40734U 15034C   15226.04228527  .00001347  00000-0  63496-3 0  9993
2 40734   4.2171  69.8729 7275394 204.7018  87.8208  2.27486829   668
ARIANE 5 DEB [SYLDA]    
1 40735U 15034D   15226.35248862  .00013449  00000-0  54914-2 0  9992
2 40735   4.0785  72.5641 7266709 202.1831  95.1758  2.28911451   653
FLOCK 1E-9              
1 40736U 98067GN  15225.24195756  .00027562  00000-0  37410-3 0  9994
2 40736  51.6435 158.9167 0002968  77.2613 282.9230 15.56971087  4621
FLOCK 1E-10             
1 40737U 98067GP  15226.86601426  .00019730  00000-0  27365-3 0  9996
2 40737  51.6365 150.7836 0003421  62.8665  46.6233 15.57047026  4771
FLOCK 1E-11             
1 40738U 98067GQ  15226.78010385  .00051498  00000-0  67709-3 0  9999
2 40738  51.6430 151.1378 0003436   3.4385  22.0808 15.57962206  4588
FLOCK 1E-12             
1 40739U 98067GR  15226.79754257  .00026998  00000-0  36988-3 0  9996
2 40739  51.6434 151.1005 0004309   9.0217  90.5286 15.57170782  4597
FLOCK 1E-13             
1 40740U 98067GS  15226.79775069  .00033703  00000-0  45775-3 0  9998
2 40740  51.6430 151.1037 0003876  55.4323  44.3644 15.57286234  4574
FLOCK 1E-14             
1 40741U 98067GT  15226.86524069  .00032557  00000-0  44464-3 0  9999
2 40741  51.6461 150.7816 0004512  56.9577  53.3135 15.57153027  4572
ARKYD-3R                
1 40742U 98067GU  15226.83815725  .00051886  00000-0  66705-3 0  9997
2 40742  51.6447 150.7475 0004288  90.2558 310.0825 15.58553066  4575
CENTENNIAL 1            
1 40743U 98067GV  15226.77712775  .00041834  00000-0  55284-3 0  9994
2 40743  51.6446 151.1204 0004399  87.8479 296.8014 15.57914164  4566
SOYUZ-TMA 17M           
1 40744U 15035A   15204.58592506  .00046589  00000-0  68003-3 0  9997
2 40744  51.6451 262.2726 0001334 294.5630 156.6060 15.55189487   119
WGS F7 (USA 263)        
1 40746U 15036A   15222.75819743 -.00000088  00000-0  00000+0 0  9998
2 40746   0.1665 279.7726 1325998  25.8760 163.8686  1.00251674   156
DELTA 4 R/B             
1 40747U 15036B   15225.41089675 -.00000001  00000-0  00000+0 0  9993
2 40747  24.4646 128.2543 8242469 183.7780 158.0210  1.10070506   214
BEIDOU-3 M1             
1 40748U 15037A   15225.92266898 -.00000029  00000-0  00000+0 0  9995
2 40748  54.9947  76.6315 0004807 253.1577 267.7905  1.86229507   365
BEIDOU-3 M2             
1 40749U 15037B   15225.74235925 -.00000029  00000-0  00000+0 0  9993
2 40749  54.9938  76.6298 0005236 263.4567 273.3523  1.86223696   368
CZ-3B R/B               
1 40750U 15037C   15226.48335080  .00057295 -27053-6  13150-2 0  9993
2 40750  55.0357  66.1127 5792894 176.7131 190.1410  4.44737631   900
YZ-1 R/B                
1 40751U 15037D   15225.19530190 -.00000036  00000-0  00000+0 0  9995
2 40751  54.9120  76.8121 0908479  15.2771 347.4114  1.56592888   304
